BEIJING 1               
1 28890U 05043A   18039.86568805  .00000040  00000-0  17206-4 0  9990
2 28890  97.9051 190.0326 0016666 122.9378 237.3431 14.61210508654981
HJ-1A                   
1 33320U 08041A   18039.84148557  .00000095  00000-0  20778-4 0  9999
2 33320  97.9053 105.2528 0025728 344.6386  15.4020 14.76888882507719
HJ-1B                   
1 33321U 08041B   18039.83475954  .00000108  00000-0  22620-4 0  9996
2 33321  97.9110 106.6440 0034725   1.0358 359.0901 14.76974702507703
YAOGAN 4                
1 33446U 08061A   18039.93266690  .00000051  00000-0  14116-4 0  9990
2 33446  97.6132  28.2262 0014490 249.7036 110.2617 14.76739613494968
DEIMOS-1                
1 35681U 09041A   18039.87559314  .00000011  00000-0  94728-5 0  9997
2 35681  97.9256 291.3998 0000686   8.7185 351.4042 14.71714785457957
UK-DMC 2                
1 35683U 09041C   18039.90136680  .00000129  00000-0  28610-4 0  9996
2 35683  97.8037 274.2230 0001692  82.2935 277.8469 14.71010407457800
RISAT 1                 
1 38248U 12017A   18039.85392571  .00000151  00000-0  13377-4 0  9999
2 38248  97.5732  49.5418 0003647 338.2467 143.0111 15.09408948318937
DMC3-FM1                
1 40715U 15032A   18039.86467072  .00000028  00000-0  12111-4 0  9999
2 40715  98.0181 297.9367 0017444  98.3258 261.9931 14.73674443139056
DMC3-FM2                
1 40716U 15032B   18039.88767570  .00000014  00000-0  98158-5 0  9999
2 40716  98.0199 298.0875 0014564 105.1234 255.1595 14.73681495139060
DMC3-FM3                
1 40717U 15032C   18039.77385360  .00000030  00000-0  12359-4 0  9997
2 40717  98.0189 298.6955 0018501  99.8889 260.4415 14.73708682139041
